STARLINK-6252           
1 56555U 23065BE  24213.57342317  .00000614  00000+0  60534-4 0  9998
2 56555  43.0034 167.6295 0001582 268.2420  91.8241 15.02537744 67532
STARLINK-5302           
1 56556U 23065BF  24213.84265781  .00001469  00000+0  12374-3 0  9995
2 56556  43.0038 166.2129 0001357 274.7268  85.3419 15.02543673 68354
STARLINK-6265           
1 56557U 23065BG  24213.83600131  .00000650  00000+0  63210-4 0  9994
2 56557  43.0019 166.1595 0001273 263.5665  96.5032 15.02542147 68354
STARLINK-6286           
1 56558U 23065BH  24214.16617451  .00000154  00000+0  26478-4 0  9999
2 56558  43.0027 164.3359 0001371 263.0947  96.9739 15.02536398 67627
STARLINK-30122          
1 56688U 23067A   24214.08651285 -.00000602  00000+0 -29494-4 0  9990
2 56688  43.0015 216.9901 0001236 275.2941  84.7760 15.02535898 66716
STARLINK-30129          
1 56689U 23067B   24213.21230586  .00000468  00000+0  49678-4 0  9996
2 56689  43.0015 221.6161 0001388 290.2824  69.7869 15.02537869 67436
STARLINK-30124          
1 56690U 23067C   24213.40842096  .00000409  00000+0  45366-4 0  9999
2 56690  43.0021 220.5186 0001263 272.8972  87.1726 15.02530696 67462
STARLINK-30087          
1 56691U 23067D   24213.92310558  .00141904  00000+0  13141-2 0  9990
2 56691  42.9906 150.0041 0034172 170.3936 189.7590 15.65550016 67484
STARLINK-30036          
1 56692U 23067E   24213.73415006 -.00000844  00000+0 -47423-4 0  9995
2 56692  43.0024 218.6811 0001489 271.7167  88.3505 15.02532598 66385
STARLINK-30067          
1 56693U 23067F   24213.72748989  .00001274  00000+0  10934-3 0  9996
2 56693  43.0018 218.6302 0001237 273.3063  86.7638 15.02531390 67512
STARLINK-30126          
1 56694U 23067G   24213.46490353  .00000196  00000+0  29602-4 0  9992
2 56694  43.0028 220.0987 0001228 280.7376  79.3328 15.02539977 67477
STARLINK-30121          
1 56695U 23067H   24213.32532088  .00025755  00000+0  19196-2 0  9993
2 56695  43.0016 220.7498 0002390 185.0711 175.0107 15.02436971 67457
STARLINK-30130          
1 56697U 23067K   24213.69751473 -.00000201  00000+0  18369-6 0  9991
2 56697  43.0020 218.3994 0000867 260.1055  99.9689 15.02530038 67257
STARLINK-30068          
1 56698U 23067L   24213.70444404  .00006226  00000+0  47531-3 0  9999
2 56698  43.0001 205.4635 0001339 268.0279  92.0410 15.02554981 67402
STARLINK-30127          
1 56699U 23067M   24213.45491792  .00000676  00000+0  65088-4 0  9995
2 56699  43.0020 220.0254 0001298 273.1770  86.8923 15.02534756 67476
STARLINK-30053          
1 56700U 23067N   24213.71748379  .00001819  00000+0  14967-3 0  9992
2 56700  43.0011 218.5541 0001140 264.1616  95.9096 15.02546585 67515
STARLINK-30125          
1 56701U 23067P   24213.71416948 -.00000122  00000+0  60466-5 0  9991
2 56701  43.0028 218.5291 0001351 270.4800  89.5888 15.02535127 67513
STARLINK-30117          
1 56702U 23067Q   24214.14965809  .00000539  00000+0  54949-4 0  9994
2 56702  43.0018 216.5723 0001148 285.5300  74.5416 15.02533257 66722
STARLINK-30132          
1 56703U 23067R   24214.10970821 -.00001123  00000+0 -68085-4 0  9999
2 56703  43.0011 216.3225 0001590 281.1392  78.9271 15.02530875 66725
STARLINK-30066          
1 56704U 23067S   24213.29198680  .00000573  00000+0  57504-4 0  9994
2 56704  43.0014 220.5003 0001228 270.1318  89.9384 15.02539526 67454
STARLINK-30080          
1 56705U 23067T   24214.09998884  .00000300  00000+0  37284-4 0  9999
2 56705  43.0033 203.3373 0001480 280.1168  79.9507 15.02540529 66875
STARLINK-30079          
1 56706U 23067U   24214.16951749 -.00004954  00000+0 -35171-3 0  9990
2 56706  43.0018 215.9236 0001285 280.1086  79.9611 15.02558583 66738
STARLINK-30070          
1 56707U 23067V   24213.37510309  .00003012  00000+0  23785-3 0  9996
2 56707  43.0021 220.2838 0001253 265.8544  94.2155 15.02548153 67460
STARLINK-30071          
1 56708U 23067W   24213.42828851  .00001857  00000+0  15248-3 0  9997
2 56708  43.0012 219.8213 0001468 273.0570  87.0105 15.02542818 66624
STARLINK-30085          
1 56709U 23067X   24214.09971708 -.00000480  00000+0 -20455-4 0  9992
2 56709  43.0011 216.2575 0000927 260.9277  99.1460 15.02534788 66720
STARLINK-6197           
1 56767U 23078A   24213.92317527  .00000358  00000+0  37786-4 0  9999
2 56767  69.9999  41.4336 0002911 271.3285  88.7540 14.98326262 64449
STARLINK-6198           
1 56768U 23078B   24213.84757792 -.00000647  00000+0 -46476-4 0  9992
2 56768  70.0023   1.4350 0002819 271.9201  88.1635 14.98330404 65425
STARLINK-5978           
1 56769U 23078C   24213.91480795  .00000236  00000+0  27568-4 0  9990
2 56769  69.9995  41.4021 0002919 268.5976  91.4849 14.98331579 64441
STARLINK-6342           
1 56770U 23078D   24213.91899719 -.00001725  00000+0 -13683-3 0  9990
2 56770  69.9996  41.4180 0002924 271.6209  88.4615 14.98317111 64702
STARLINK-6339           
1 56771U 23078E   24213.81398576 -.00000115  00000+0 -18012-5 0  9990
2 56771  70.0001 341.8151 0003145 268.0815  91.9984 14.98329310 65902
STARLINK-6275           
1 56772U 23078F   24213.91064074  .00000484  00000+0  48353-4 0  9992
2 56772  69.9998  41.3882 0003490 267.2774  92.7986 14.98334375 64442
STARLINK-6296           
1 56773U 23078G   24213.74322093 -.00001676  00000+0 -13272-3 0  9999
2 56773  70.0005 341.9851 0002886 270.2341  89.8487 14.98322259 65893
STARLINK-6190           
1 56774U 23078H   24213.89828070 -.00001682  00000+0 -13315-3 0  9997
2 56774  70.0003  41.3483 0002947 254.9334 105.1499 14.98335022 64440
STARLINK-6292           
1 56775U 23078J   24213.74305765 -.00001825  00000+0 -14523-3 0  9994
2 56775  70.0018 341.9841 0002930 268.2461  91.8362 14.98328471 65895
STARLINK-6274           
1 56776U 23078K   24213.83507177  .00001002  00000+0  91775-4 0  9996
2 56776  70.0010   1.7855 0003000 272.8657  87.2159 14.98339418 65415
STARLINK-5582           
1 56777U 23078L   24213.86035010 -.00003659  00000+0 -29903-3 0  9997
2 56777  70.0006  21.7422 0003122 270.9058  89.1743 14.98328669 64923
STARLINK-6304           
1 56778U 23078M   24213.83090822 -.00000616  00000+0 -43834-4 0  9997
2 56778  70.0010   1.7695 0003155 272.6720  87.4078 14.98329036 65416
STARLINK-6231           
1 56779U 23078N   24213.80586559 -.00001976  00000+0 -15787-3 0  9997
2 56779  70.0021   1.6818 0003026 265.7920  94.2893 14.98330668 65400
STARLINK-5963           
1 56780U 23078P   24213.90616840 -.00000512  00000+0 -34360-4 0  9991
2 56780  70.0014  21.5161 0002921 269.8381  90.2444 14.99137469 64935
STARLINK-5989           
1 56781U 23078Q   24214.17327380 -.00002709  00000+0 -21929-3 0  9996
2 56781  70.0013  20.8266 0003110 273.9950  86.0853 14.98343101 65234
STARLINK-6352           
1 56782U 23078R   24214.16053083  .00000391  00000+0  40565-4 0  9993
2 56782  70.0011   0.9130 0003206 269.7179  90.3613 14.98329956 65722
STARLINK-6357           
1 56783U 23078S   24213.81838207 -.00000180  00000+0 -73148-5 0  9996
2 56783  70.0011   1.7257 0003038 269.0317  91.0494 14.98331830 65417
STARLINK-6354           
1 56784U 23078T   24213.82256356 -.00001442  00000+0 -11307-3 0  9996
2 56784  70.0015   1.7404 0003461 268.8976  91.1787 14.98336266 65418
STARLINK-5931           
1 56785U 23078U   24214.18162731 -.00000164  00000+0 -59306-5 0  9993
2 56785  70.0016  20.8569 0002807 271.0185  89.0653 14.98330092 65234
STARLINK-6341           
1 56786U 23078V   24214.14800673  .00000560  00000+0  54711-4 0  9996
2 56786  70.0015   0.8697 0002995 268.6194  91.4622 14.98333712 65723
STARLINK-6326           
1 56787U 23078W   24214.12296586  .00000244  00000+0  28213-4 0  9994
2 56787  70.0020   0.7863 0003005 258.7056 101.3766 14.98330176 65725
STARLINK-6336           
1 56788U 23078X   24213.81004890 -.00001540  00000+0 -12134-3 0  9991
2 56788  70.0012   1.6977 0002985 271.3903  88.6914 14.98317564 65415
STARLINK-6325           
1 56789U 23078Y   24213.78477198 -.00000094  00000+0 -81438-7 0  9993
2 56789  70.0008 341.7292 0003184 269.2526  90.8268 14.98323944 66572
STARLINK-6345           
1 56790U 23078Z   24213.79311594 -.00000838  00000+0 -62417-4 0  9992
2 56790  70.0011 341.7591 0002893 271.1379  88.9449 14.98331150 65907
STARLINK-5977           
1 56791U 23078AA  24213.87703417  .00008740  00000+0  74024-3 0  9995
2 56791  70.0006  21.3985 0002828 273.5272  86.5563 14.98284036 65198
STARLINK-6046           
1 56792U 23078AB  24214.18581703 -.00000525  00000+0 -36238-4 0  9994
2 56792  70.0013  20.8716 0002990 265.4219  94.6598 14.98322116 65239
STARLINK-6052           
1 56793U 23078AC  24213.89371906  .00000069  00000+0  13608-4 0  9991
2 56793  70.0006  21.4557 0003150 271.0728  89.0071 14.98327818 64933
STARLINK-6060           
1 56794U 23078AD  24214.13548687 -.00001312  00000+0 -10219-3 0  9990
2 56794  70.0020   0.8269 0003263 270.9064  89.1722 14.98335474 65726
STARLINK-6061           
1 56795U 23078AE  24213.84357556 -.00002757  00000+0 -22339-3 0  9991
2 56795  70.0017   1.4125 0003068 264.3906  95.6903 14.98330416 65427
STARLINK-6049           
1 56796U 23078AF  24213.91041350 -.00000225  00000+0 -11071-4 0  9992
2 56796  70.0013  21.5157 0003082 269.7374  90.3432 14.98330488 64939
STARLINK-6058           
1 56797U 23078AG  24213.85617830 -.00000629  00000+0 -44953-4 0  9991
2 56797  70.0015  21.7208 0002826 264.9567  95.1270 14.98326249 64929
STARLINK-6068           
1 56798U 23078AH  24213.86427056  .00000234  00000+0  27359-4 0  9993
2 56798  70.0019   1.4851 0003034 269.7774  90.3038 14.98335770 65680
STARLINK-5953           
1 56799U 23078AJ  24214.20680891  .00000300  00000+0  32968-4 0  9997
2 56799  70.0008  20.5386 0003152 270.1176  89.9622 14.98331903 65246
STARLINK-6036           
1 56800U 23078AK  24213.90206783 -.00000826  00000+0 -61454-4 0  9997
2 56800  70.0014  21.4856 0002776 270.9979  89.0861 14.98327486 64930
